[{"OBJECT_NAME":"STARLINK-3103","OBJECT_ID":"2021-082AZ","EPOCH":"2026-03-09T22:13:51.503520","MEAN_MOTION":14.98342719,"ECCENTRICITY":0.00028766,"INCLINATION":69.9986,"RA_OF_ASC_NODE":253.8622,"ARG_OF_PERICENTER":267.6681,"MEAN_ANOMALY":92.4149,"EPHEMERIS_TYPE":0,"CLASSIFICATION_TYPE":"U","NORAD_CAT_ID":49177,"ELEMENT_SET_NO":999,"REV_AT_EPOCH":24819,"BSTAR":-0.00013195845,"MEAN_MOTION_DOT":-1.668e-5,"MEAN_MOTION_DDOT":0},{"OBJECT_NAME":"OKEAN-4","OBJECT_ID":"1994-066A","EPOCH":"2026-03-09T20:34:09.232320","MEAN_MOTION":14.96885016,"ECCENTRICITY":0.00147251,"INCLINATION":82.5373,"RA_OF_ASC_NODE":349.8556,"ARG_OF_PERICENTER":246.8531,"MEAN_ANOMALY":113.1141,"EPHEMERIS_TYPE":0,"CLASSIFICATION_TYPE":"U","NORAD_CAT_ID":23317,"ELEMENT_SET_NO":999,"REV_AT_EPOCH":70047,"BSTAR":0.00028288801,"MEAN_MOTION_DOT":3.276e-5,"MEAN_MOTION_DDOT":0}]
